QIANFAN-89              
1 63175U 25046S   25300.21597846  .00000092  00000+0  12466-3 0  9993
2 63175  88.9774 324.8565 0014536 258.4511 101.5008 13.50973232 41123
QIANFAN-90              
1 63176U 25046T   25300.31876796  .00000024  00000+0  19320-4 0  9991
2 63176  88.9774 324.8182 0011500 255.5206 104.4670 13.50973957 41150
